GLOBALSTAR M023         
1 25621U 99004A   25338.10475337 -.00000118  00000+0 -78945-4 0  9997
2 25621  52.0112 256.0352 0010174 138.7450 326.7965 12.62509526237191
GLOBALSTAR M038         
1 25624U 99004D   25338.33571450 -.00000074  00000+0  17417-3 0  9994
2 25624  51.9990 301.5594 0002285  46.7933 104.5348 12.32536767223352
GLOBALSTAR M022         
1 25649U 99012A   25337.90167399 -.00000021  00000+0  79143-3 0  9991
2 25649  52.0011 189.5377 0003275 128.5683 332.9053 12.02507593196798
GLOBALSTAR M041         
1 25650U 99012B   25338.52890653 -.00000079  00000+0  76056-4 0  9992
2 25650  52.0030  74.4744 0000499 293.2479  66.8305 11.96681241198676
GLOBALSTAR M046         
1 25651U 99012C   25338.60108448 -.00000081  00000+0  88248-4 0  9995
2 25651  52.0035 131.5482 0001521 200.6084 239.4443 12.09418478204288
GLOBALSTAR M037         
1 25652U 99012D   25338.57642573 -.00000073  00000+0  17250-3 0  9999
2 25652  52.0024  25.1531 0002108 193.7374 319.6404 12.62457085232797
